INTELSAT 21 (IS-21)     
1 38749U 12045A   26165.19003344 -.00000276  00000+0  00000+0 0  9991
2 38749   0.0164 320.5840 0001261 138.6000 173.7258  1.00271183 50498
ASTRA 2F                
1 38778U 12051A   26165.19525334  .00000158  00000+0  00000+0 0  9996
2 38778   0.0704 259.0810 0001369 282.4425 179.4657  1.00268298 41108
GSAT-10                 
1 38779U 12051B   26165.06352124 -.00000155  00000+0  00000+0 0  9996
2 38779   0.0888 263.4166 0007760 183.6857 281.1532  1.00270175 50062
INTELSAT 23 (IS-23)     
1 38867U 12057A   26165.19003344 -.00000276  00000+0  00000+0 0  9995
2 38867   0.0146 345.6246 0000372  89.3722 202.9030  1.00274700 49929
BEIDOU-2 G6             
1 38953U 12059A   26164.96167564 -.00000170  00000+0  00000+0 0  9995
2 38953   4.4119  73.5571 0009636 324.3484 294.5967  1.00272624 49873
LUCH-5B                 
1 38977U 12061A   26163.97444869 -.00000133  00000+0  00000+0 0  9999
2 38977  10.4721  49.9205 0002346 149.8007  36.0976  1.00272671 49565
YAMAL 300K              
1 38978U 12061B   26164.65554332  .00000082  00000+0  00000+0 0  9995
2 38978   0.0114 272.6642 0001348 318.3169  89.9517  1.00271234 49595
STAR ONE C3             
1 38991U 12062A   26164.74710860 -.00000239  00000+0  00000+0 0  9996
2 38991   0.0260  64.3356 0002134  31.2476   0.4491  1.00271709 49738
EUTELSAT 21B            
1 38992U 12062B   26165.19395333  .00000139  00000+0  00000+0 0  9999
2 38992   0.0663   5.6588 0003080  76.4475 271.8032  1.00273675 49797
ECHOSTAR 16             
1 39008U 12065A   26164.53590012  .00000000  00000+0  00000+0 0  9996
2 39008   0.0260  10.6537 0001996  73.6614 308.9578  1.00271025 49601
ZHONGXING-12            
1 39017U 12067A   26165.06438791 -.00000198  00000+0  00000+0 0  9991
2 39017   0.0280  77.3454 0002839   0.6209 295.0702  1.00272705 49474
EUTELSAT 70B            
1 39020U 12069A   26165.20302568 -.00000035  00000+0  00000+0 0  9995
2 39020   0.0629   9.4752 0003950  66.3450 330.2597  1.00271371 49476
YAMAL 402               
1 39022U 12070A   26165.12923650  .00000094  00000+0  00000+0 0  9995
2 39022   1.2572  84.1954 0003616 358.5957 281.0683  1.00270189 49362
SKYNET 5D               
1 39034U 12075A   26165.20010670  .00000108  00000+0  00000+0 0  9997
2 39034   0.0680 343.6821 0003424 108.2492 295.3982  1.00269037 49123
MEXSAT 3                
1 39035U 12075B   26165.16691568 -.00000016  00000+0  00000+0 0  9993
2 39035   0.0160  28.0237 0001166  41.8545 137.8984  1.00268102  7021
TDRS 11                 
1 39070U 13004A   26165.28016772  .00000084  00000+0  00000+0 0  9990
2 39070   3.5166  31.2151 0005559  19.1550 138.6828  1.00268461 46666
AMAZONAS 3              
1 39078U 13006A   26165.19003344 -.00000274  00000+0  00000+0 0  9993
2 39078   0.0385 228.8706 0001783 260.2549 140.7662  1.00273428 44882
AZERSPACE 1             
1 39079U 13006B   26165.19880669  .00000142  00000+0  00000+0 0  9990
2 39079   0.0171 349.5092 0001144 123.4411 267.1240  1.00268510 48778
SBIRS GEO-2 (USA 241)   
1 39120U 13011A   26164.68076344 -.00000279  00000+0  00000+0 0  9995
2 39120   4.4824  52.5089 0002229  21.5553  23.1964  1.00271315 48506
EUTELSAT 117 WEST A     
1 39122U 13012A   26165.16656902 -.00000004  00000+0  00000+0 0  9992
2 39122   0.0122 356.2751 0002640  85.9006 123.4558  1.00270673 48403
ANIK G1                 
1 39127U 13014A   26165.16838902  .00000000  00000+0  00000+0 0  9996
2 39127   0.0263   8.8864 0001453  68.4364 138.4544  1.00270040 48222
ZHONGXING-11            
1 39157U 13020A   26165.10947455 -.00000281  00000+0  00000+0 0  9996
2 39157   0.0490  61.7993 0002054  15.4444 322.5013  1.00270430 47866
EUTELSAT 7B             
1 39163U 13022A   26165.19100666  .00000057  00000+0  00000+0 0  9999
2 39163   0.0748  22.4500 0004623  13.4395 302.3673  1.00272263 47914
WGS F5 (USA 243)        
1 39168U 13024A   26164.46637977 -.00000273  00000+0  00000+0 0  9996
2 39168   0.0011  15.4824 0000180 280.4763  81.2165  1.00272719 47131
SES-6                   
1 39172U 13026A   26165.18164661 -.00000252  00000+0  00000+0 0  9995
2 39172   0.0171 354.8108 0002465 104.2226 188.3434  1.00270247 47696
IRNSS-1A                
1 39199U 13034A   26160.59779131  .00000070  00000+0  00000+0 0  9994
2 39199  35.7049  63.9797 0017411 184.2474 279.8453  1.00272948 47299
MUOS-2                  
1 39206U 13036A   26164.86732865 -.00000007  00000+0  00000+0 0  9993
2 39206   4.9889  45.5289 0050859 177.6281 163.2008  1.00272620 47159
ALPHASAT                
1 39215U 13038A   26165.05199451  .00000141  00000+0  00000+0 0  9993
2 39215   2.9984   1.4058 0001633  89.4879 215.0204  1.00273165 43983
INSAT-3D                
1 39216U 13038B   26164.93013235 -.00000331  00000+0  00000+0 0  9997
2 39216   1.9175  82.5789 0000558 308.0873 335.9433  1.00270661 47040
WGS F6 (USA 244)        
1 39222U 13041A   26165.00253076  .00000098  00000+0  00000+0 0  9995
2 39222   0.0187   8.7359 0000262 268.4282 210.8693  1.00270536 46036
ES'HAIL 1               
1 39233U 13044A   26165.19473333  .00000152  00000+0  00000+0 0  9991
2 39233   0.0539  19.6475 0002046  60.5778 277.8577  1.00273050 46591
GSAT-7                  
1 39234U 13044B   26165.16830657 -.00000068  00000+0  00000+0 0  9992
2 39234   0.0764  95.9197 0003184 188.9646 112.1533  1.00270245 45228
