OBJECT_NAME,OBJECT_ID,EPOCH,MEAN_MOTION,ECCENTRICITY,INCLINATION,RA_OF_ASC_NODE,ARG_OF_PERICENTER,MEAN_ANOMALY,EPHEMERIS_TYPE,CLASSIFICATION_TYPE,NORAD_CAT_ID,ELEMENT_SET_NO,REV_AT_EPOCH,BSTAR,MEAN_MOTION_DOT,MEAN_MOTION_DDOT
INTELSAT 21 (IS-21),2012-045A,2026-06-14T04:33:38.889216,1.00271183,.00012619,0.0164,320.5840,138.6000,173.7258,0,U,38749,999,5049,0,-.276E-5,0
ASTRA 2F,2012-051A,2026-06-14T04:41:09.888576,1.00268298,.00013692,0.0704,259.0810,282.4425,179.4657,0,U,38778,999,4110,0,.158E-5,0
GSAT-10,2012-051B,2026-06-14T01:31:28.235136,1.00270175,.00077603,0.0888,263.4166,183.6857,281.1532,0,U,38779,999,5006,0,-.155E-5,0
INTELSAT 23 (IS-23),2012-057A,2026-06-14T04:33:38.889216,1.00274700,.00003726,0.0146,345.6246,89.3722,202.9030,0,U,38867,999,4992,0,-.276E-5,0
BEIDOU-2 G6,2012-059A,2026-06-13T23:04:48.775296,1.00272624,.0009636,4.4119,73.5571,324.3484,294.5967,0,U,38953,999,4987,0,-.17E-5,0
LUCH-5B,2012-061A,2026-06-12T23:23:12.366816,1.00272671,.00023465,10.4721,49.9205,149.8007,36.0976,0,U,38977,999,4956,0,-.133E-5,0
YAMAL 300K,2012-061B,2026-06-13T15:43:58.942848,1.00271234,.00013484,0.0114,272.6642,318.3169,89.9517,0,U,38978,999,4959,0,.82E-6,0
STAR ONE C3,2012-062A,2026-06-13T17:55:50.183040,1.00271709,.00021344,0.0260,64.3356,31.2476,0.4491,0,U,38991,999,4973,0,-.239E-5,0
EUTELSAT 21B,2012-062B,2026-06-14T04:39:17.567712,1.00273675,.00030804,0.0663,5.6588,76.4475,271.8032,0,U,38992,999,4979,0,.139E-5,0
ECHOSTAR 16,2012-065A,2026-06-13T12:51:41.770368,1.00271025,.00019962,0.0260,10.6537,73.6614,308.9578,0,U,39008,999,4960,0,0,0
ZHONGXING-12,2012-067A,2026-06-14T01:32:43.115424,1.00272705,.00028398,0.0280,77.3454,0.6209,295.0702,0,U,39017,999,4947,0,-.198E-5,0
EUTELSAT 70B,2012-069A,2026-06-14T04:52:21.418752,1.00271371,.00039508,0.0629,9.4752,66.3450,330.2597,0,U,39020,999,4947,0,-.35E-6,0
YAMAL 402,2012-070A,2026-06-14T03:06:06.033600,1.00270189,.00036162,1.2572,84.1954,358.5957,281.0683,0,U,39022,999,4936,0,.94E-6,0
SKYNET 5D,2012-075A,2026-06-14T04:48:09.218880,1.00269037,.00034248,0.0680,343.6821,108.2492,295.3982,0,U,39034,999,4912,0,.108E-5,0
MEXSAT 3,2012-075B,2026-06-14T04:00:21.514752,1.00268102,.00011662,0.0160,28.0237,41.8545,137.8984,0,U,39035,999,702,0,-.16E-6,0
TDRS 11,2013-004A,2026-06-14T06:43:26.491008,1.00268461,.00055593,3.5166,31.2151,19.1550,138.6828,0,U,39070,999,4666,0,.84E-6,0
AMAZONAS 3,2013-006A,2026-06-14T04:33:38.889216,1.00273428,.0001783,0.0385,228.8706,260.2549,140.7662,0,U,39078,999,4488,0,-.274E-5,0
AZERSPACE 1,2013-006B,2026-06-14T04:46:16.898016,1.00268510,.00011447,0.0171,349.5092,123.4411,267.1240,0,U,39079,999,4877,0,.142E-5,0
SBIRS GEO-2 (USA 241),2013-011A,2026-06-13T16:20:17.961216,1.00271315,.00022295,4.4824,52.5089,21.5553,23.1964,0,U,39120,999,4850,0,-.279E-5,0
EUTELSAT 117 WEST A,2013-012A,2026-06-14T03:59:51.563328,1.00270673,.00026406,0.0122,356.2751,85.9006,123.4558,0,U,39122,999,4840,0,-.4E-7,0
ANIK G1,2013-014A,2026-06-14T04:02:28.811328,1.00270040,.0001453,0.0263,8.8864,68.4364,138.4544,0,U,39127,999,4822,0,0,0
ZHONGXING-11,2013-020A,2026-06-14T02:37:38.601120,1.00270430,.00020545,0.0490,61.7993,15.4444,322.5013,0,U,39157,999,4786,0,-.281E-5,0
EUTELSAT 7B,2013-022A,2026-06-14T04:35:02.975424,1.00272263,.00046235,0.0748,22.4500,13.4395,302.3673,0,U,39163,999,4791,0,.57E-6,0
WGS F5 (USA 243),2013-024A,2026-06-13T11:11:35.212128,1.00272719,.00001805,0.0011,15.4824,280.4763,81.2165,0,U,39168,999,4713,0,-.273E-5,0
SES-6,2013-026A,2026-06-14T04:21:34.267104,1.00270247,.00024655,0.0171,354.8108,104.2226,188.3434,0,U,39172,999,4769,0,-.252E-5,0
IRNSS-1A,2013-034A,2026-06-09T14:20:49.169184,1.00272948,.00174117,35.7049,63.9797,184.2474,279.8453,0,U,39199,999,4729,0,.7E-6,0
MUOS-2,2013-036A,2026-06-13T20:48:57.195360,1.00272620,.0050859,4.9889,45.5289,177.6281,163.2008,0,U,39206,999,4715,0,-.7E-7,0
ALPHASAT,2013-038A,2026-06-14T01:14:52.325664,1.00273165,.00016336,2.9984,1.4058,89.4879,215.0204,0,U,39215,999,4398,0,.141E-5,0
INSAT-3D,2013-038B,2026-06-13T22:19:23.435040,1.00270661,.0000558,1.9175,82.5789,308.0873,335.9433,0,U,39216,999,4704,0,-.331E-5,0
WGS F6 (USA 244),2013-041A,2026-06-14T00:03:38.657664,1.00270536,.00002622,0.0187,8.7359,268.4282,210.8693,0,U,39222,999,4603,0,.98E-6,0
ES'HAIL 1,2013-044A,2026-06-14T04:40:24.959712,1.00273050,.00020467,0.0539,19.6475,60.5778,277.8577,0,U,39233,999,4659,0,.152E-5,0
GSAT-7,2013-044B,2026-06-14T04:02:21.687648,1.00270245,.00031841,0.0764,95.9197,188.9646,112.1533,0,U,39234,999,4522,0,-.68E-6,0
